NORAD_CAT_ID,OBJECT_NAME,OBJECT_TYPE,EPOCH,MEAN_MOTION,ECCENTRICITY,INCLINATION,RA_OF_ASC_NODE,ARG_OF_PERICENTER,MEAN_ANOMALY,BSTAR,MEAN_MOTION_DOT,MEAN_MOTION_DDOT,TLE_LINE0,TLE_LINE1,TLE_LINE2,SEMIMAJOR_AXIS,PERIOD,APOGEE,PERIGEE,DECAYED
52382.0,STARLINK-3799,PAYLOAD,2023-01-01 18:04:53,15.08827316,0.0006377,53.2214,9.7636,12.5516,347.5634,-1.2405e-05,-4.88e-06,0.0,0 STARLINK-3799,1 52382U 22045BD  23001.75339517 -.00000488  00000-0 -12405-4 0  9997,2 52382  53.2214   9.7636 0006377  12.5516 347.5634 15.08827316 40369,6917.919,95.438,544.196,535.373,0.0
52382.0,STARLINK-3799,PAYLOAD,2023-01-02 00:26:25,15.08830917,0.0006433,53.2212,8.5755,9.134,350.9769,-0.00010577,-1.974e-05,0.0,0 STARLINK-3799,1 52382U 22045BD  23002.01835456 -.00001974  00000-0 -10577-3 0  9998,2 52382  53.2212   8.5755 0006433   9.1340 350.9769 15.08830917 40409,6917.908,95.438,544.2230000000002,535.323,0.0
52382.0,STARLINK-3799,PAYLOAD,2023-01-02 06:47:57,15.08843401,0.0006542,53.2198,7.3862,14.2209,345.8966,-0.00011605,-2.138e-05,0.0,0 STARLINK-3799,1 52382U 22045BD  23002.28330807 -.00002138  00000-0 -11605-3 0  9993,2 52382  53.2198   7.3862 0006542  14.2209 345.8966 15.08843401 40448,6917.87,95.437,544.261,535.2090000000002,0.0
52382.0,STARLINK-3799,PAYLOAD,2023-01-02 09:58:43,15.08845527,0.0006354,53.2199,6.7899,14.9807,345.1372,-0.00013023,-2.364e-05,0.0,0 STARLINK-3799,1 52382U 22045BD  23002.41578690 -.00002364  00000-0 -13023-3 0  9999,2 52382  53.2199   6.7899 0006354  14.9807 345.1372 15.08845527 40461,6917.863,95.437,544.124,535.3330000000002,0.0
52382.0,STARLINK-3799,PAYLOAD,2023-01-03 09:49:30,15.08840333,0.0006372999999999,53.2196,2.3312,14.9094,345.2084,0.00015817,2.229e-05,0.0,0 STARLINK-3799,1 52382U 22045BD  23003.40938002  .00002229  00000-0  15817-3 0  9997,2 52382  53.2196   2.3312 0006373  14.9094 345.2084 15.08840333 40617,6917.879,95.438,544.153,535.336,0.0
52382.0,STARLINK-3799,PAYLOAD,2023-01-04 06:29:31,15.0883882,0.0006332,53.2197,358.4644,16.5063,343.6134,0.00010856,1.439e-05,0.0,0 STARLINK-3799,1 52382U 22045BD  23004.27050397  .00001439  00000-0  10856-3 0  9995,2 52382  53.2197 358.4644 0006332  16.5063 343.6134 15.08838820 40740,6917.884,95.438,544.129,535.369,0.0
52382.0,STARLINK-3799,PAYLOAD,2023-01-04 22:23:22,15.08850826,0.0006235,53.2191,355.4912,16.7569,343.3628,6.7538e-05,7.86e-06,0.0,0 STARLINK-3799,1 52382U 22045BD  23004.93289406  .00000786  00000-0  67538-4 0  9997,2 52382  53.2191 355.4912 0006235  16.7569 343.3628 15.08850826 40840,6917.847,95.437,544.026,535.399,0.0
52382.0,STARLINK-3799,PAYLOAD,2023-01-05 09:31:03,15.08855314,0.0006162,53.2192,353.4098,19.783,340.34,0.00016196,2.291e-05,0.0,0 STARLINK-3799,1 52382U 22045BD  23005.39656632  .00002291  00000-0  16196-3 0  9993,2 52382  53.2192 353.4098 0006162  19.7830 340.3400 15.08855314 40917,6917.834,95.437,543.961,535.436,0.0
52382.0,STARLINK-3799,PAYLOAD,2023-01-06 07:46:29,15.08828121,0.0006127,53.2189,349.2469,19.1551,340.967,-0.00011156,-2.065e-05,0.0,0 STARLINK-3799,1 52382U 22045BD  23006.32394764 -.00002065  00000-0 -11156-3 0  9994,2 52382  53.2189 349.2469 0006127  19.1551 340.9670 15.08828121 41050,6917.917,95.438,544.02,535.543,0.0
52382.0,STARLINK-3799,PAYLOAD,2023-01-06 22:04:57,15.08832091,0.0006186,53.2186,346.5707,17.5368,342.5837,-7.44e-05,-1.474e-05,0.0,0 STARLINK-3799,1 52382U 22045BD  23006.92010641 -.00001474  00000-0 -74400-4 0  9994,2 52382  53.2186 346.5707 0006186  17.5368 342.5837 15.08832091 41149,6917.905,95.438,544.049,535.49,0.0
52382.0,STARLINK-3799,PAYLOAD,2023-01-07 07:37:14,15.08850204,0.0005967,53.2189,344.7864,21.1431,338.9807,5.519e-05,5.89e-06,0.0,0 STARLINK-3799,1 52382U 22045BD  23007.31753216  .00000589  00000-0  55190-4 0  9999,2 52382  53.2189 344.7864 0005967  21.1431 338.9807 15.08850204 41203,6917.849,95.437,543.842,535.586,0.0
52382.0,STARLINK-3799,PAYLOAD,2023-01-07 21:55:44,15.08830768,0.0005558,53.2188,342.1085,22.06900000000001,338.0541,5.1604e-06,-2.08e-06,0.0,0 STARLINK-3799,1 52382U 22045BD  23007.91370403 -.00000208  00000-0  51604-5 0  9994,2 52382  53.2188 342.1085 0005558  22.0690 338.0541 15.08830768 41290,6917.9090000000015,95.438,543.619,535.929,0.0
52382.0,STARLINK-3799,PAYLOAD,2023-01-08 07:28:02,15.0883759,0.0005808,53.217,340.3262,20.5884,339.5342,0.00025001,3.692e-05,0.0,0 STARLINK-3799,1 52382U 22045BD  23008.31114241  .00003692  00000-0  25001-3 0  9994,2 52382  53.2170 340.3262 0005808  20.5884 339.5342 15.08837590 41356,6917.888000000001,95.438,543.771,535.735,0.0
52382.0,STARLINK-3799,PAYLOAD,2023-01-09 04:08:03,15.08838347,0.0005456,53.2193,336.459,23.3318,336.7921,1.4243e-05,-6.3e-07,0.0,0 STARLINK-3799,1 52382U 22045BD  23009.17226642 -.00000063  00000-0  14243-4 0  9995,2 52382  53.2193 336.4590 0005456  23.3318 336.7921 15.08838347 41480,6917.885,95.438,543.525,535.976,0.0
52382.0,STARLINK-3799,PAYLOAD,2023-01-09 07:18:49,15.08845936,0.0005436,53.217,335.8629,24.7169,335.4082,0.00011022,1.466e-05,0.0,0 STARLINK-3799,1 52382U 22045BD  23009.30474245  .00001466  00000-0  11022-3 0  9992,2 52382  53.2170 335.8629 0005436  24.7169 335.4082 15.08845936 41507,6917.861999999999,95.437,543.488,535.967,0.0
52382.0,STARLINK-3799,PAYLOAD,2023-01-09 15:15:46,15.08828146,0.0005987,53.2176,334.3783,32.3528,327.783,-7.7597e-05,-1.525e-05,0.0,0 STARLINK-3799,1 52382U 22045BD  23009.63595535 -.00001525  00000-0 -77597-4 0  9992,2 52382  53.2176 334.3783 0005987  32.3528 327.7830 15.08828146 41557,6917.917,95.438,543.923,535.64,0.0
52382.0,STARLINK-3799,PAYLOAD,2023-01-09 21:37:19,15.0882468,0.0005564,53.2161,333.1898,30.8176,329.3142,-0.0001046,-1.954e-05,0.0,0 STARLINK-3799,1 52382U 22045BD  23009.90091903 -.00001954  00000-0 -10460-3 0  9993,2 52382  53.2161 333.1898 0005564  30.8176 329.3142 15.08824680 41595,6917.927,95.439,543.641,535.943,0.0
52382.0,STARLINK-3799,PAYLOAD,2023-01-10 07:09:38,15.08828482,0.0005038,53.2166,331.403,34.4365,325.6953,-2.3881e-05,-6.7e-06,0.0,0 STARLINK-3799,1 52382U 22045BD  23010.29835961 -.00000670  00000-0 -23881-4 0  9993,2 52382  53.2166 331.4030 0005038  34.4365 325.6953 15.08828482 41655,6917.916,95.438,543.266,536.295,0.0
52382.0,STARLINK-3799,PAYLOAD,2023-01-10 21:28:06,15.08834434,0.000478,53.2166,328.7271,35.645,324.486,0.00017836,2.551e-05,0.0,0 STARLINK-3799,1 52382U 22045BD  23010.89452084  .00002551  00000-0  17836-3 0  9990,2 52382  53.2166 328.7271 0004780  35.6450 324.4860 15.08834434 41740,6917.897,95.438,543.069,536.456,0.0
52382.0,STARLINK-3799,PAYLOAD,2023-01-11 03:49:38,15.08847616,0.0005172,53.2154,327.5395,35.52,324.6135,0.00039667,6.032e-05,0.0,0 STARLINK-3799,1 52382U 22045BD  23011.15947824  .00006032  00000-0  39667-3 0  9995,2 52382  53.2154 327.5395 0005172  35.5200 324.6135 15.08847616 41786,6917.857,95.437,543.3,536.144,0.0
52382.0,STARLINK-3799,PAYLOAD,2023-01-11 13:21:58,15.08840215,0.0005286,53.2157,325.7552,38.5943,321.5426,0.00031637,4.75e-05,0.0,0 STARLINK-3799,1 52382U 22045BD  23011.55692333  .00004750  00000-0  31637-3 0  9995,2 52382  53.2157 325.7552 0005286  38.5943 321.5426 15.08840215 41841,6917.88,95.438,543.4019999999998,536.0880000000002,0.0
52382.0,STARLINK-3799,PAYLOAD,2023-01-11 21:18:54,15.0883855,0.0004952,53.2174,324.2702,42.8679,317.2698,0.0002441,3.598e-05,0.0,0 STARLINK-3799,1 52382U 22045BD  23011.88812743  .00003598  00000-0  24410-3 0  9990,2 52382  53.2174 324.2702 0004952  42.8679 317.2698 15.08838550 41891,6917.885,95.438,543.1759999999998,536.3240000000002,0.0
52382.0,STARLINK-3799,PAYLOAD,2023-01-12 13:12:45,15.088385999999998,0.0004942,53.2156,321.2952,38.6202,321.5143,5.055e-05,5.15e-06,0.0,0 STARLINK-3799,1 52382U 22045BD  23012.55052367  .00000515  00000-0  50550-4 0  9994,2 52382  53.2156 321.2952 0004942  38.6202 321.5143 15.08838600 41999,6917.885,95.438,543.168,536.331,0.0
52382.0,STARLINK-3799,PAYLOAD,2023-01-12 21:09:41,15.08830937,0.000469,53.2166,319.8108,43.4461,316.69,-0.0001341,-2.423e-05,0.0,0 STARLINK-3799,1 52382U 22045BD  23012.88172662 -.00002423  00000-0 -13410-3 0  9996,2 52382  53.2166 319.8108 0004690  43.4461 316.6900 15.08830937 42045,6917.908,95.438,543.018,536.529,0.0
52382.0,STARLINK-3799,PAYLOAD,2023-01-13 13:03:32,15.08838712,0.0004372,53.2156,316.8392,48.493,311.6437,0.00019376,2.796e-05,0.0,0 STARLINK-3799,1 52382U 22045BD  23013.54412836  .00002796  00000-0  19376-3 0  9998,2 52382  53.2156 316.8392 0004372  48.4930 311.6437 15.08838712 42149,6917.884,95.438,542.774,536.725,0.0
52382.0,STARLINK-3799,PAYLOAD,2023-01-14 04:57:23,15.08855546,0.0004562,53.2134,313.8612,48.1495,311.9886,0.00074314,0.00011565,0.0,0 STARLINK-3799,1 52382U 22045BD  23014.20652578  .00011565  00000-0  74314-3 0  9998,2 52382  53.2134 313.8612 0004562  48.1495 311.9886 15.08855546 42247,6917.8330000000005,95.437,542.854,536.5419999999999,0.0
52382.0,STARLINK-3799,PAYLOAD,2023-01-14 12:54:19,15.08849127,0.0004182,53.214,312.3737,50.3961,309.74,0.00039527,6.01e-05,0.0,0 STARLINK-3799,1 52382U 22045BD  23014.53772543  .00006010  00000-0  39527-3 0  9995,2 52382  53.2140 312.3737 0004182  50.3961 309.7400 15.08849127 42297,6917.852,95.437,542.611,536.8240000000001,0.0
52382.0,STARLINK-3799,PAYLOAD,2023-01-14 20:51:15,15.08840925,0.0004478,53.2141,310.8878,55.001000000000005,305.1401,0.00014976,2.095e-05,0.0,0 STARLINK-3799,1 52382U 22045BD  23014.86892876  .00002095  00000-0  14976-3 0  9993,2 52382  53.2141 310.8878 0004478  55.0010 305.1401 15.08840925 42346,6917.878000000001,95.437,542.84,536.645,0.0
52382.0,STARLINK-3799,PAYLOAD,2023-01-15 04:48:10,15.0885288,0.0004538,53.2128,309.4013,54.2272,305.9141,0.00047092,7.217e-05,0.0,0 STARLINK-3799,1 52382U 22045BD  23015.20012541  .00007217  00000-0  47092-3 0  9991,2 52382  53.2128 309.4013 0004538  54.2272 305.9141 15.08852880 42391,6917.840999999999,95.437,542.845,536.567,0.0
